ADRAS-J                 
1 58992U 24034A   24181.50093527  .00005465  00000+0  50636-3 0  9995
2 58992  98.2123 155.0783 0044192  10.8379 349.3781 14.94187012 19706
